#dV2023  1 10 10  0  0.00000000    1682       CTS   FIT  GFZ
## 2244 208800.00000000    30.00000000 59954 0.4166666666667
+    1   L64  0  0  0  0  0  0  0  0  0  0  0  0  0  0  0  0
+          0  0  0  0  0  0  0  0  0  0  0  0  0  0  0  0  0
+          0  0  0  0  0  0  0  0  0  0  0  0  0  0  0  0  0
+          0  0  0  0  0  0  0  0  0  0  0  0  0  0  0  0  0
+          0  0  0  0  0  0  0  0  0  0  0  0  0  0  0  0  0
++         0  0  0  0  0  0  0  0  0  0  0  0  0  0  0  0  0
++         0  0  0  0  0  0  0  0  0  0  0  0  0  0  0  0  0
++         0  0  0  0  0  0  0  0  0  0  0  0  0  0  0  0  0
++         0  0  0  0  0  0  0  0  0  0  0  0  0  0  0  0  0
++         0  0  0  0  0  0  0  0  0  0  0  0  0  0  0  0  0
%c L  cc GPS ccc cccc cccc cccc cccc ccccc ccccc ccccc ccccc
%c cc cc ccc ccc cccc cccc cccc cccc ccccc ccccc ccccc ccccc
%f  0.0000000  0.000000000  0.00000000000  0.000000000000000
%f  0.0000000  0.000000000  0.00000000000  0.000000000000000
%i    0    0    0    0      0      0      0      0         0
%i    0    0    0    0      0      0      0      0         0
/* CCCCCCCCCCCCCCCCCCCCCCCCCCCCCCCCCCCCCCCCCCCCCCCCCCCCCCCCCCCCCCCCCCCCCCCCCCCCC
/* C                             GFZ RSO-ORBIT                                 C
/* C DOI: https://doi.org/10.5880/GFZ_ORBIT/RSO/L64_G_v02                      C
/* C                                                                           C
/* C DORIS        RMS: not applicable                                          C
/* C GNSS-E Code  RMS: not applicable                                          C
/* C GNSS-E Phase RMS: not applicable                                          C
/* C GNSS-G Code  RMS:  50.766 [cm]   Obs.acc.:     14173 Obs.eli.:      1314  C
/* C GNSS-G Phase RMS:   3.821 [mm]   Obs.acc.:     14173 Obs.eli.:      1314  C
/* C SLR          RMS:   2.315 [cm]   Obs.acc.:        53 Obs.eli.:         0  C
/* C                                                                           C
/* CCCCCCCCCCCCCCCCCCCCCCCCCCCCCCCCCCCCCCCCCCCCCCCCCCCCCCCCCCCCCCCCCCCCCCCCCCCCC
*  2023  1 10 10  0  0.00000000
PL64   1529.856785  -4263.387531   5167.933947 999999.999999
VL64  18149.563867 -54320.063728 -50117.426631 999999.999999
*  2023  1 10 10  0 30.00000000
PL64   1583.102666  -4424.095150   5014.752478  26722.733515
VL64  17345.528518 -52807.916556 -51994.194119 999999.999999
*  2023  1 10 10  1  0.00000000
PL64   1633.917562  -4580.173237   4856.025972  26723.193786
VL64  16529.099119 -51233.978491 -53813.774676 999999.999999
*  2023  1 10 10  1 30.00000000
PL64   1682.266023  -4731.438883   4691.929052  26723.654027
VL64  15701.431925 -49599.905040 -55574.135798 999999.999999
*  2023  1 10 10  2  0.00000000
PL64   1728.116078  -4877.714260   4522.642348  26724.114609
VL64  14863.689821 -47907.427038 -57273.307530 999999.999999
*  2023  1 10 10  2 30.00000000
PL64   1771.439255  -5018.826843   4348.352301  26724.575857
VL64  14017.040984 -46158.348884 -58909.386939 999999.999999
*  2023  1 10 10  3  0.00000000
PL64   1812.210589  -5154.609625   4169.250953  26725.037756
VL64  13162.656710 -44354.544323 -60480.542050 999999.999999
*  2023  1 10 10  3 30.00000000
PL64   1850.408632  -5284.901319   3985.535736  26725.499815
VL64  12301.708823 -42497.952494 -61985.012399 999999.999999
*  2023  1 10 10  4  0.00000000
PL64   1886.015449  -5409.546554   3797.409255  26725.961327
VL64  11435.367818 -40590.577256 -63421.109193 999999.999999
*  2023  1 10 10  4 30.00000000
PL64   1919.016613  -5528.396065   3605.079072  26726.422247
VL64  10564.801271 -38634.486314 -64787.217946 999999.999999
*  2023  1 10 10  5  0.00000000
PL64   1949.401194  -5641.306883   3408.757476  26726.882596
VL64   9691.172452 -36631.808455 -66081.800627 999999.999999
*  2023  1 10 10  5 30.00000000
PL64   1977.161744  -5748.142515   3208.661257  26727.342520
VL64   8815.639714 -34584.731431 -67303.396933 999999.999999
*  2023  1 10 10  6  0.00000000
PL64   2002.294281  -5848.773116   3005.011464  26727.802230
VL64   7939.355476 -32495.500282 -68450.626674 999999.999999
*  2023  1 10 10  6 30.00000000
PL64   2024.798270  -5943.075660   2798.033164  26728.261908
VL64   7063.464395 -30366.414502 -69522.192403 999999.999999
*  2023  1 10 10  7  0.00000000
PL64   2044.676596  -6030.934097   2587.955189  26728.721460
VL64   6189.101711 -28199.824773 -70516.881199 999999.999999
*  2023  1 10 10  7 30.00000000
PL64   2061.935534  -6112.239502   2375.009883  26729.181022
VL64   5317.391684 -25998.129348 -71433.566270 999999.999999
*  2023  1 10 10  8  0.00000000
PL64   2076.584712  -6186.890209   2159.432840  26729.640571
VL64   4449.446557 -23763.771199 -72271.205578 999999.999999
*  2023  1 10 10  8 30.00000000
PL64   2088.637078  -6254.791954   1941.462655  26730.100058
VL64   3586.366063 -21499.239595 -73028.842801 999999.999999
*  2023  1 10 10  9  0.00000000
PL64   2098.108858  -6315.858005   1721.340653  26730.559352
VL64   2729.234578 -19207.067792 -73705.613831 999999.999999
*  2023  1 10 10  9 30.00000000
PL64   2105.019501  -6370.009288   1499.310610  26731.018650
VL64   1879.117911 -16889.824843 -74300.749642 999999.999999
*  2023  1 10 10 10  0.00000000
PL64   2109.391627  -6417.174482   1275.618471  26731.477879
VL64   1037.061863 -14550.110353 -74813.572236 999999.999999
*  2023  1 10 10 10 30.00000000
PL64   2111.250959  -6457.290110   1050.512082  26731.937161
VL64    204.092184 -12190.556014 -75243.492501 999999.999999
*  2023  1 10 10 11  0.00000000
PL64   2110.626272  -6490.300640    824.240917  26732.396701
VL64   -618.785760  -9813.825094 -75590.014845 999999.999999
*  2023  1 10 10 11 30.00000000
PL64   2107.549322  -6516.158572    597.055794  26732.856226
VL64  -1430.587198  -7422.607011 -75852.739687 999999.999999
*  2023  1 10 10 12  0.00000000
PL64   2102.054790  -6534.824506    369.208582  26733.315670
VL64  -2230.348609  -5019.613197 -76031.364663 999999.999999
*  2023  1 10 10 12 30.00000000
PL64   2094.180210  -6546.267205    140.951914  26733.775103
VL64  -3017.131414  -2607.572965 -76125.685045 999999.999999
*  2023  1 10 10 13  0.00000000
PL64   2083.965892  -6550.463642    -87.461113  26734.234552
VL64  -3790.024609   -189.230993 -76135.593398 999999.999999
*  2023  1 10 10 13 30.00000000
PL64   2071.454835  -6547.399044   -315.777223  26734.693829
VL64  -4548.145672   2232.656971 -76061.080862 999999.999999
*  2023  1 10 10 14  0.00000000
PL64   2056.692644  -6537.066915   -543.743263  26735.152977
VL64  -5290.641664   4655.329755 -75902.236184 999999.999999
*  2023  1 10 10 14 30.00000000
PL64   2039.727434  -6519.469044   -771.106489  26735.612157
VL64  -6016.690548   7076.024081 -75659.243506 999999.999999
*  2023  1 10 10 15  0.00000000
PL64   2020.609739  -6494.615512   -997.614851  26736.071267
VL64  -6725.501883   9491.976989 -75332.381250 999999.999999
*  2023  1 10 10 15 30.00000000
PL64   1999.392420  -6462.524683  -1223.017276  26736.530244
VL64  -7416.316573  11900.429125 -74922.021579 999999.999999
*  2023  1 10 10 16  0.00000000
PL64   1976.130566  -6423.223191  -1447.063944  26736.988805
VL64  -8088.405977  14298.627448 -74428.628538 999999.999999
*  2023  1 10 10 16 30.00000000
PL64   1950.881410  -6376.745922  -1669.506566  26737.447210
VL64  -8741.071058  16683.823003 -73852.757783 999999.999999
*  2023  1 10 10 17  0.00000000
PL64   1923.704231  -6323.136002  -1890.098665  26737.905504
VL64  -9373.645960  19053.270593 -73195.064631 999999.999999
*  2023  1 10 10 17 30.00000000
PL64   1894.660251  -6262.444773  -2108.595888  26738.363850
VL64  -9985.504953  21404.244071 -72456.308473 999999.999999
*  2023  1 10 10 18  0.00000000
PL64   1863.812505  -6194.731706  -2324.756300  26738.820945
VL64 -10576.062117  23734.050053 -71637.339568 999999.999999
*  2023  1 10 10 18 30.00000000
PL64   1831.225733  -6120.064307  -2538.340641  26739.278279
VL64 -11144.765658  26040.022464 -70739.089981 999999.999999
*  2023  1 10 10 19  0.00000000
PL64   1796.966283  -6038.518049  -2749.112575  26739.736584
VL64 -11691.097752  28319.518174 -69762.578160 999999.999999
*  2023  1 10 10 19 30.00000000
PL64   1761.102001  -5950.176291  -2956.838952  26740.195574
VL64 -12214.577019  30569.921616 -68708.910883 999999.999999
*  2023  1 10 10 20  0.00000000
PL64   1723.702119  -5855.130196  -3161.290076  26740.654910
VL64 -12714.759345  32788.649088 -67579.281787 999999.999999
*  2023  1 10 10 20 30.00000000
PL64   1684.837149  -5753.478622  -3362.239957  26741.114493
VL64 -13191.238461  34973.152514 -66374.969993 999999.999999
*  2023  1 10 10 21  0.00000000
PL64   1644.578761  -5645.328015  -3559.466573  26741.574214
VL64 -13643.646359  37120.923054 -65097.338181 999999.999999
*  2023  1 10 10 21 30.00000000
PL64   1602.999673  -5530.792285  -3752.752108  26742.033452
VL64 -14071.653315  39229.494512 -63747.830361 999999.999999
*  2023  1 10 10 22  0.00000000
PL64   1560.173535  -5409.992669  -3941.883199  26742.492900
VL64 -14474.967779  41296.446460 -62327.969086 999999.999999
*  2023  1 10 10 22 30.00000000
PL64   1516.174813  -5283.057600  -4126.651165  26742.952885
VL64 -14853.336560  43319.405996 -60839.352935 999999.999999
*  2023  1 10 10 23  0.00000000
PL64   1471.078677  -5150.122551  -4306.852233  26743.413142
VL64 -15206.545093  45296.049771 -59283.655458 999999.999999
*  2023  1 10 10 23 30.00000000
PL64   1424.960880  -5011.329889  -4482.287760  26743.872799
VL64 -15534.417333  47224.107384 -57662.623140 999999.999999
*  2023  1 10 10 24  0.00000000
PL64   1377.897649  -4866.828710  -4652.764451  26744.332318
VL64 -15836.815322  49101.363680 -55978.072677 999999.999999
*  2023  1 10 10 24 30.00000000
PL64   1329.965564  -4716.774668  -4818.094561  26744.791914
VL64 -16113.639009  50925.660978 -54231.889332 999999.999999
*  2023  1 10 10 25  0.00000000
PL64   1281.241452  -4561.329803  -4978.096104  26745.251581
VL64 -16364.826068  52694.901851 -52426.024817 999999.999999
EOF
